HAWK-2B                 
1 47508U 21006CZ  26068.67629241  .00009474  00000+0  29651-3 0  9991
2 47508  97.2334 114.1140 0007102 185.9063 174.2098 15.33301353284246
STARLINK-32075          
1 60345U 24136S   26068.34200387 -.00000725  00000+0 -12369-4 0  9993
2 60345  53.1612  77.1119 0001305  89.5137 270.6014 15.30185308 89614
